ORBCOMM FM20 [+]        
1 25416U 98046D   23308.67060306  .00001782  00000+0  67483-3 0  9997
2 25416  44.9944  91.4914 0001303 173.0824 187.0041 14.34559191319392
ORBCOMM FM16 [-]        
1 25417U 98046E   23308.94935709  .00002796  00000+0  10155-2 0  9995
2 25417  44.9940  87.1702 0004954 206.0110 154.0488 14.35295177319577
ORBCOMM FM15 [-]        
1 25418U 98046F   23308.66345503  .00002479  00000+0  91077-3 0  9993
2 25418  44.9967  92.1619 0004369 205.7694 154.2936 14.35042238319324
ORBCOMM FM14 [-]        
1 25419U 98046G   23308.70890098  .00002890  00000+0  10509-2 0  9990
2 25419  44.9958  91.2733 0003377 193.8557 180.6557 14.35161164319282
ORBCOMM FM13 [+]        
1 25420U 98046H   23308.66846248  .00002304  00000+0  85729-3 0  9992
2 25420  44.9970  95.4010 0005448 192.3925 167.6789 14.34604046318355
ORBCOMM FM21 [-]        
1 25475U 98053A   23308.89481700  .00001464  00000+0  56265-3 0  9992
2 25475  45.0083 178.4564 0000534  59.6129 300.4771 14.34621381312409
ORBCOMM FM22 [-]        
1 25476U 98053B   23308.93117536  .00001915  00000+0  71549-3 0  9994
2 25476  45.0071 176.2240 0001978 124.6164 235.4870 14.35003736312393
ORBCOMM FM23 [-]        
1 25477U 98053C   23308.92485039  .00001703  00000+0  64676-3 0  9998
2 25477  45.0084 180.7602 0001297 110.4572 249.6415 14.34601345312559
